FOSSASAT-2E20 (TAT-O)   
1 63003U 25009DN  26068.70855016  .00016337  00000+0  61863-3 0  9998
2 63003  97.3231 146.2859 0002189 347.5575  12.5610 15.26991080121314
STARLINK-36174          
1 67166U 25303D   26068.07979290  .00039595  00000+0  14398-2 0  9991
2 67166  43.0029 314.0153 0002509 253.7546 106.3030 15.27597520 12640
